start=new Date('2022-10-19T00:00:00.000Z').valueOf();
sats=[{"SEMIMAJOR_AXIS":"6925.352","SITE":"AFETR","GP_ID":"215525662","TIME_SYSTEM":"UTC","TLE_LINE1":"1 45560U 20025AF  22291.80617516  .00000160  00000-0  29632-4 0  9992","MEAN_ELEMENT_THEORY":"SGP4","REV_AT_EPOCH":"13893","BSTAR":"0.00002963200000","CENTER_NAME":"EARTH","MEAN_MOTION_DOT":"0.00000160","OBJECT_TYPE":"PAYLOAD","PERIOD":"95.592","NORAD_CAT_ID":"45560","INCLINATION":"53.0557","OBJECT_NAME":"STARLINK-1346","EPHEMERIS_TYPE":"0","EPOCH":"2022-10-18T19:20:53.533824","ARG_OF_PERICENTER":"77.8465","ELEMENT_SET_NO":"999","FILE":"3621750","OBJECT_ID":"2020-025AF","MEAN_MOTION":"15.06398715","CLASSIFICATION_TYPE":"U","MEAN_MOTION_DDOT":"0.0000000000000","RA_OF_ASC_NODE":"233.6939","REF_FRAME":"TEME","APOAPSIS":"548.100","RCS_SIZE":"LARGE","ECCENTRICITY":"0.00012740","DECAY_DATE":null,"LAUNCH_DATE":"2020-04-22","TLE_LINE2":"2 45560  53.0557 233.6939 0001274  77.8465 282.2667 15.06398715138935","PERIAPSIS":"546.335","COUNTRY_CODE":"US","MEAN_ANOMALY":"282.2667"},{"MEAN_ANOMALY":"193.9177","TLE_LINE2":"2 45561  53.0548 144.6810 0002087 166.1875 193.9177 15.18707698140197","PERIAPSIS":"508.310","COUNTRY_CODE":"US","DECAY_DATE":null,"LAUNCH_DATE":"2020-04-22","ECCENTRICITY":"0.00020870","REF_FRAME":"TEME","APOAPSIS":"511.185","RCS_SIZE":"LARGE","MEAN_MOTION_DDOT":"0.0000000000000","RA_OF_ASC_NODE":"144.6810","ELEMENT_SET_NO":"999","FILE":"3621750","MEAN_MOTION":"15.18707698","OBJECT_ID":"2020-025AG","CLASSIFICATION_TYPE":"U","ARG_OF_PERICENTER":"166.1875","OBJECT_NAME":"STARLINK-1348","EPHEMERIS_TYPE":"0","EPOCH":"2022-10-18T21:02:00.661056","NORAD_CAT_ID":"45561","INCLINATION":"53.0548","PERIOD":"94.817","OBJECT_TYPE":"PAYLOAD","CENTER_NAME":"EARTH","MEAN_MOTION_DOT":"0.00025307","BSTAR":"0.00121560000000","GP_ID":"215525904","TIME_SYSTEM":"UTC","TLE_LINE1":"1 45561U 20025AG  22291.87639654  .00025307  00000-0  12156-2 0  9998","MEAN_ELEMENT_THEORY":"SGP4","REV_AT_EPOCH":"14019","SITE":"AFETR","SEMIMAJOR_AXIS":"6887.882"},{"MEAN_ANOMALY":"286.1769","COUNTRY_CODE":"US","TLE_LINE2":"2 45562  53.0534 246.2614 0001469  73.9382 286.1769 15.06376023138702","PERIAPSIS":"546.270","LAUNCH_DATE":"2020-04-22","DECAY_DATE":null,"ECCENTRICITY":"0.00014690","RCS_SIZE":"LARGE","APOAPSIS":"548.304","REF_FRAME":"TEME","RA_OF_ASC_NODE":"246.2614","MEAN_MOTION_DDOT":"0.0000000000000","FILE":"3621474","ELEMENT_SET_NO":"999","OBJECT_ID":"2020-025AH","MEAN_MOTION":"15.06376023","CLASSIFICATION_TYPE":"U","ARG_OF_PERICENTER":"73.9382","EPHEMERIS_TYPE":"0","EPOCH":"2022-10-18T05:32:56.087808","OBJECT_NAME":"STARLINK-1354","NORAD_CAT_ID":"45562","INCLINATION":"53.0534","OBJECT_TYPE":"PAYLOAD","PERIOD":"95.594","MEAN_MOTION_DOT":"0.00001483","CENTER_NAME":"EARTH","BSTAR":"0.00011853000000","TLE_LINE1":"1 45562U 20025AH  22291.23120472  .00001483  00000-0  11853-3 0  9995","MEAN_ELEMENT_THEORY":"SGP4","REV_AT_EPOCH":"13870","GP_ID":"215494822","TIME_SYSTEM":"UTC","SITE":"AFETR","SEMIMAJOR_AXIS":"6925.422"},{"NORAD_CAT_ID":"45563","INCLINATION":"53.0544","OBJECT_NAME":"STARLINK-1355","EPHEMERIS_TYPE":"0","EPOCH":"2022-10-18T20:13:59.672064","MEAN_MOTION_DOT":"0.00001053","CENTER_NAME":"EARTH","OBJECT_TYPE":"PAYLOAD","PERIOD":"95.593","GP_ID":"215524913","TIME_SYSTEM":"UTC","TLE_LINE1":"1 45563U 20025AJ  22291.84305176  .00001053  00000-0  89622-4 0  9992","REV_AT_EPOCH":"13879","MEAN_ELEMENT_THEORY":"SGP4","BSTAR":"0.00008962200000","SEMIMAJOR_AXIS":"6925.375","SITE":"AFETR","TLE_LINE2":"2 45563  53.0544 243.5166 0001628  99.6227 260.4946 15.06391361138799","PERIAPSIS":"546.113","COUNTRY_CODE":"US","MEAN_ANOMALY":"260.4946","ECCENTRICITY":"0.00016280","DECAY_DATE":null,"LAUNCH_DATE":"2020-04-22","MEAN_MOTION_DDOT":"0.0000000000000","RA_OF_ASC_NODE":"243.5166","REF_FRAME":"TEME","RCS_SIZE":"LARGE","APOAPSIS":"548.367","ARG_OF_PERICENTER":"99.6227","MEAN_MOTION":"15.06391361","FILE":"3621750","ELEMENT_SET_NO":"999","OBJECT_ID":"2020-025AJ","CLASSIFICATION_TYPE":"U"},{"SEMIMAJOR_AXIS":"6925.389","SITE":"AFETR","GP_ID":"215525163","TIME_SYSTEM":"UTC","TLE_LINE1":"1 45564U 20025AK  22291.57398344  .00001517  00000-0  12073-3 0  9992","REV_AT_EPOCH":"13875","MEAN_ELEMENT_THEORY":"SGP4","BSTAR":"0.00012073000000","MEAN_MOTION_DOT":"0.00001517","CENTER_NAME":"EARTH","PERIOD":"95.593","OBJECT_TYPE":"PAYLOAD","NORAD_CAT_ID":"45564","INCLINATION":"53.0558","OBJECT_NAME":"STARLINK-1356","EPHEMERIS_TYPE":"0","EPOCH":"2022-10-18T13:46:32.169216","ARG_OF_PERICENTER":"67.6704","ELEMENT_SET_NO":"999","FILE":"3621750","OBJECT_ID":"2020-025AK","MEAN_MOTION":"15.06386735","CLASSIFICATION_TYPE":"U","MEAN_MOTION_DDOT":"0.0000000000000","RA_OF_ASC_NODE":"244.7404","REF_FRAME":"TEME","APOAPSIS":"548.335","RCS_SIZE":"LARGE","ECCENTRICITY":"0.00015600","DECAY_DATE":null,"LAUNCH_DATE":"2020-04-22","TLE_LINE2":"2 45564  53.0558 244.7404 0001560  67.6704 292.4451 15.06386735138754","PERIAPSIS":"546.174","COUNTRY_CODE":"US","MEAN_ANOMALY":"292.4451"},{"EPHEMERIS_TYPE":"0","EPOCH":"2022-10-18T13:35:54.932928","OBJECT_NAME":"STARLINK-1357","NORAD_CAT_ID":"45565","INCLINATION":"53.0551","PERIOD":"95.593","OBJECT_TYPE":"PAYLOAD","CENTER_NAME":"EARTH","MEAN_MOTION_DOT":"-0.00000176","BSTAR":"0.00000707640000","TLE_LINE1":"1 45565U 20025AL  22291.56660802 -.00000176  00000-0  70764-5 0  9997","MEAN_ELEMENT_THEORY":"SGP4","REV_AT_EPOCH":"13875","GP_ID":"215526404","TIME_SYSTEM":"UTC","SITE":"AFETR","SEMIMAJOR_AXIS":"6925.389","MEAN_ANOMALY":"296.9705","COUNTRY_CODE":"US","TLE_LINE2":"2 45565  53.0551 244.7702 0001487  63.1436 296.9705 15.06386776138756","PERIAPSIS":"546.224","LAUNCH_DATE":"2020-04-22","DECAY_DATE":null,"ECCENTRICITY":"0.00014870","APOAPSIS":"548.284","RCS_SIZE":"LARGE","REF_FRAME":"TEME","RA_OF_ASC_NODE":"244.7702","MEAN_MOTION_DDOT":"0.0000000000000","FILE":"3621750","MEAN_MOTION":"15.06386776","ELEMENT_SET_NO":"999","OBJECT_ID":"2020-025AL","CLASSIFICATION_TYPE":"U","ARG_OF_PERICENTER":"63.1436"},{"SEMIMAJOR_AXIS":"6925.384","SITE":"AFETR","MEAN_ELEMENT_THEORY":"SGP4","REV_AT_EPOCH":"13875","TLE_LINE1":"1 45566U 20025AM  22291.58136076  .00000922  00000-0  80821-4 0  9993","TIME_SYSTEM":"UTC","GP_ID":"215526164","BSTAR":"0.00008082100000","CENTER_NAME":"EARTH","MEAN_MOTION_DOT":"0.00000922","PERIOD":"95.593","OBJECT_TYPE":"PAYLOAD","INCLINATION":"53.0522","NORAD_CAT_ID":"45566","EPOCH":"2022-10-18T13:57:09.569664","EPHEMERIS_TYPE":"0","OBJECT_NAME":"STARLINK-1358","ARG_OF_PERICENTER":"75.5351","CLASSIFICATION_TYPE":"U","MEAN_MOTION":"15.06388527","FILE":"3621750","ELEMENT_SET_NO":"999","OBJECT_ID":"2020-025AM","RA_OF_ASC_NODE":"244.7123","MEAN_MOTION_DDOT":"0.0000000000000","APOAPSIS":"547.866","RCS_SIZE":"LARGE","REF_FRAME":"TEME","ECCENTRICITY":"0.00008910","LAUNCH_DATE":"2020-04-22","DECAY_DATE":null,"COUNTRY_CODE":"US","PERIAPSIS":"546.632","TLE_LINE2":"2 45566  53.0522 244.7123 0000891  75.5351 284.5736 15.06388527138756","MEAN_ANOMALY":"284.5736"},{"ECCENTRICITY":"0.00016240","DECAY_DATE":null,"LAUNCH_DATE":"2020-04-22","PERIAPSIS":"546.096","TLE_LINE2":"2 45567  53.0533 244.6417 0001624  73.4304 286.6863 15.06397760138768","COUNTRY_CODE":"US","MEAN_ANOMALY":"286.6863","ARG_OF_PERICENTER":"73.4304","CLASSIFICATION_TYPE":"U","FILE":"3621750","OBJECT_ID":"2020-025AN","ELEMENT_SET_NO":"999","MEAN_MOTION":"15.06397760","MEAN_MOTION_DDOT":"0.0000000000000","RA_OF_ASC_NODE":"244.6417","REF_FRAME":"TEME","RCS_SIZE":"LARGE","APOAPSIS":"548.345","CENTER_NAME":"EARTH","MEAN_MOTION_DOT":"0.00002714","PERIOD":"95.592","OBJECT_TYPE":"PAYLOAD","INCLINATION":"53.0533","NORAD_CAT_ID":"45567","OBJECT_NAME":"STARLINK-1361","EPOCH":"2022-10-18T14:13:04.068480","EPHEMERIS_TYPE":"0","SEMIMAJOR_AXIS":"6925.355","SITE":"AFETR","TIME_SYSTEM":"UTC","GP_ID":"215525413","REV_AT_EPOCH":"13876","MEAN_ELEMENT_THEORY":"SGP4","TLE_LINE1":"1 45567U 20025AN  22291.59240820  .00002714  00000-0  20104-3 0  9996","BSTAR":"0.00020104000000"},{"RA_OF_ASC_NODE":"244.8343","MEAN_MOTION_DDOT":"0.0000000000000","RCS_SIZE":"LARGE","APOAPSIS":"547.903","REF_FRAME":"TEME","ARG_OF_PERICENTER":"52.3890","CLASSIFICATION_TYPE":"U","MEAN_MOTION":"15.06408699","FILE":"3621750","ELEMENT_SET_NO":"999","OBJECT_ID":"2020-025AP","COUNTRY_CODE":"US","PERIAPSIS":"546.471","TLE_LINE2":"2 45568  53.0550 244.8343 0001034  52.3890 307.7192 15.06408699138752","MEAN_ANOMALY":"307.7192","ECCENTRICITY":"0.00010340","LAUNCH_DATE":"2020-04-22","DECAY_DATE":null,"REV_AT_EPOCH":"13875","MEAN_ELEMENT_THEORY":"SGP4","TLE_LINE1":"1 45568U 20025AP  22291.60718036 -.00002535  00000-0 -15129-3 0  9992","TIME_SYSTEM":"UTC","GP_ID":"215525663","BSTAR":"-0.00015129000000","SEMIMAJOR_AXIS":"6925.322","SITE":"AFETR","INCLINATION":"53.0550","NORAD_CAT_ID":"45568","EPOCH":"2022-10-18T14:34:20.383104","EPHEMERIS_TYPE":"0","OBJECT_NAME":"STARLINK-1363","CENTER_NAME":"EARTH","MEAN_MOTION_DOT":"-0.00002535","PERIOD":"95.592","OBJECT_TYPE":"PAYLOAD"},{"ARG_OF_PERICENTER":"58.4596","CLASSIFICATION_TYPE":"U","ELEMENT_SET_NO":"999","FILE":"3621750","OBJECT_ID":"2020-025AQ","MEAN_MOTION":"15.06388282","MEAN_MOTION_DDOT":"0.0000000000000","RA_OF_ASC_NODE":"244.6411","REF_FRAME":"TEME","APOAPSIS":"548.335","RCS_SIZE":"LARGE","ECCENTRICITY":"0.00015680","DECAY_DATE":null,"LAUNCH_DATE":"2020-04-22","PERIAPSIS":"546.164","TLE_LINE2":"2 45569  53.0548 244.6411 0001568  58.4596 301.6546 15.06388282138757","COUNTRY_CODE":"US","MEAN_ANOMALY":"301.6546","SEMIMAJOR_AXIS":"6925.384","SITE":"AFETR","TIME_SYSTEM":"UTC","GP_ID":"215525905","MEAN_ELEMENT_THEORY":"SGP4","REV_AT_EPOCH":"13875","TLE_LINE1":"1 45569U 20025AQ  22291.59609949 -.00000789  00000-0 -34105-4 0  9998","BSTAR":"-0.00003410500000","CENTER_NAME":"EARTH","MEAN_MOTION_DOT":"-0.00000789","OBJECT_TYPE":"PAYLOAD","PERIOD":"95.593","INCLINATION":"53.0548","NORAD_CAT_ID":"45569","OBJECT_NAME":"STARLINK-1366","EPOCH":"2022-10-18T14:18:22.995936","EPHEMERIS_TYPE":"0"}];
